ONEWEB-0444             
1 51638U 22012S   23264.88181414 -.00000387  00000+0 -11444-2 0  9997
2 51638  87.8853 234.7191 0002185  86.6318 273.5059 13.10373669 78464
ONEWEB-0445             
1 51639U 22012T   23264.90294466  .00000592  00000+0  16581-2 0  9996
2 51639  87.8852 234.7008 0001569  79.2890 280.8414 13.10377248 78473
ONEWEB-0446             
1 51640U 22012U   23264.88017611 -.00000423  00000+0 -12468-2 0  9995
2 51640  87.8853 234.7113 0001848  77.0767 283.0566 13.10372083 78455
ONEWEB-0448             
1 51641U 22012V   23264.88505398 -.00000198  00000+0 -60341-3 0  9993
2 51641  87.8852 234.7123 0002175  86.7837 273.3539 13.10373604 78424
ONEWEB-0449             
1 51642U 22012W   23264.96628912  .00000020  00000+0  21647-4 0  9990
2 51642  87.8853 234.6992 0001819  87.9212 272.2124 13.10374157 79741
ONEWEB-0451             
1 51643U 22012X   23264.73672865  .00000194  00000+0  46711-3 0  9992
2 51643  87.9175 204.4835 0002074  85.8164 274.3204 13.17649773 82043
ONEWEB-0452             
1 51644U 22012Y   23264.35492044  .00000135  00000+0  31388-3 0  9999
2 51644  87.9236 204.5560 0001839  92.6243 267.5099 13.17647192 82005
ONEWEB-0455             
1 51645U 22012Z   23265.08629739  .00000535  00000+0  23127-3 0  9990
2 51645  87.5410 193.5028 0018499 132.8757 227.3991 14.22581884 85324
